
# Worst residual: 5.04 km
# MJD 58953.000000 (2020 Apr 14  0:00)
2011-037A = Spektr-R = NORAD 37755
1 37755U 11037A   20105.49919926  .00000000  00000-0  00000-0 2  7211
2 37755 049.5766 082.6567 7894823 239.7099 162.5697 00.10043801    03

# Worst residual: 4.60 km
# MJD 58954.000000 (2020 Apr 15  0:00)
2011-037A = Spektr-R = NORAD 37755
1 37755U 11037A   20106.49919926  .00000000  00000-0  00000-0 2  7212
2 37755 049.5391 082.5717 7899172 239.7850 198.6271 00.10047385    09

# Worst residual: 6.87 km
# MJD 58955.000000 (2020 Apr 16  0:00)
2011-037A = Spektr-R = NORAD 37755
1 37755U 11037A   20107.49919926  .00000000  00000-0  00000-0 2  7213
2 37755 049.4892 082.4181 7900865 239.9086 234.7036 00.10051168    08

# Worst residual: 8.36 km
# MJD 58956.000000 (2020 Apr 17  0:00)
2011-037A = Spektr-R = NORAD 37755
1 37755U 11037A   20108.49919926  .00000000  00000-0  00000-0 2  7214
2 37755 049.4487 082.2220 7900307 240.0540 270.8096 00.10055296    02

# Worst residual: 8.68 km
# MJD 58957.000000 (2020 Apr 18  0:00)
2011-037A = Spektr-R = NORAD 37755
1 37755U 11037A   20109.49919926  .00000000  00000-0  00000-0 2  7215
2 37755 049.4364 082.0306 7898592 240.1872 306.9532 00.10060660    07

# Worst residual: 6.07 km
# MJD 58958.000000 (2020 Apr 19  0:00)
2011-037A = Spektr-R = NORAD 37755
1 37755U 11037A   20110.49919926  .00000000  00000-0  00000-0 2  7217
2 37755 049.4563 081.9163 7897175 240.2737 343.1477 00.10069854    09

# Worst residual: 4.11 km
# MJD 58959.000000 (2020 Apr 20  0:00)
2011-037A = Spektr-R = NORAD 37755
1 37755U 11037A   20111.49919926  .00000000  00000-0  00000-0 2  7218
2 37755 049.4691 081.9015 7895853 240.2837 019.4226 00.10081976    03

# Worst residual: 7.25 km
# MJD 58960.000000 (2020 Apr 21  0:00)
2011-037A = Spektr-R = NORAD 37755
1 37755U 11037A   20112.49919926  .00000000  00000-0  00000-0 2  7219
2 37755 049.4887 081.9071 7893084 240.2409 055.8642 00.10105366    07

# Worst residual: 9.26 km
# MJD 58961.000000 (2020 Apr 22  0:00)
2011-037A = Spektr-R = NORAD 37755
1 37755U 11037A   20113.49919926  .00000000  00000-0  00000-0 2  7210
2 37755 049.4869 081.9046 7889257 240.1982 092.4987 00.10125014    02

# Worst residual: 10.51 km
# MJD 58962.000000 (2020 Apr 23  0:00)
2011-037A = Spektr-R = NORAD 37755
1 37755U 11037A   20114.49919926  .00000000  00000-0  00000-0 2  7211
2 37755 049.4733 081.8860 7884806 240.1511 129.3092 00.10138823    07

# Worst residual: 10.77 km
# MJD 58963.000000 (2020 Apr 24  0:00)
2011-037A = Spektr-R = NORAD 37755
1 37755U 11037A   20115.49919926  .00000000  00000-0  00000-0 2  7212
2 37755 049.4591 081.8607 7880730 240.0877 166.2614 00.10145121    03

# Worst residual: 11.84 km
# MJD 58964.000000 (2020 Apr 25  0:00)
2011-037A = Spektr-R = NORAD 37755
1 37755U 11037A   20116.49919926  .00000000  00000-0  00000-0 2  7213
2 37755 049.4509 081.8414 7878666 240.0011 203.2936 00.10142307    05

# Worst residual: 12.84 km
# MJD 58965.000000 (2020 Apr 26  0:00)
2011-037A = Spektr-R = NORAD 37755
1 37755U 11037A   20117.49919926  .00000000  00000-0  00000-0 2  7214
2 37755 049.4486 081.8340 7881061 239.9042 240.3108 00.10130172    01

# Worst residual: 12.06 km
# MJD 58966.000000 (2020 Apr 27  0:00)
2011-037A = Spektr-R = NORAD 37755
1 37755U 11037A   20118.49919926  .00000000  00000-0  00000-0 2  7215
2 37755 049.4472 081.8282 7886854 239.8262 277.1857 00.10108170    01

# Worst residual: 8.87 km
# MJD 58967.000000 (2020 Apr 28  0:00)
2011-037A = Spektr-R = NORAD 37755
1 37755U 11037A   20119.49919926  .00000000  00000-0  00000-0 2  7216
2 37755 049.4462 081.7944 7893632 239.8022 313.8011 00.10080856    00

# Worst residual: 4.34 km
# MJD 58968.000000 (2020 Apr 29  0:00)
2011-037A = Spektr-R = NORAD 37755
1 37755U 11037A   20120.49919926  .00000000  00000-0  00000-0 2  7218
2 37755 049.4532 081.7660 7897490 239.7768 350.1389 00.10050970    01

# Worst residual: 7.53 km
# MJD 58969.000000 (2020 Apr 30  0:00)
2011-037A = Spektr-R = NORAD 37755
1 37755U 11037A   20121.49919926  .00000000  00000-0  00000-0 2  7219
2 37755 049.4550 081.7618 7897662 239.8036 026.2987 00.10041727    09

# Worst residual: 21.11 km
# MJD 58970.000000 (2020 May  1  0:00)
2011-037A = Spektr-R = NORAD 37755
1 37755U 11037A   20122.49919926  .00000000  00000-0  00000-0 2  7210
2 37755 049.3606 081.7078 7889130 240.0218 062.2702 00.10006645    02

# Worst residual: 17.21 km
# MJD 58971.000000 (2020 May  2  0:00)
2011-037A = Spektr-R = NORAD 37755
1 37755U 11037A   20123.49919926  .00000000  00000-0  00000-0 2  7211
2 37755 049.1472 081.4969 7869561 240.2547 098.4557 00.10002430    07

# Worst residual: 16.43 km
# MJD 58972.000000 (2020 May  3  0:00)
2011-037A = Spektr-R = NORAD 37755
1 37755U 11037A   20124.49919926  .00000000  00000-0  00000-0 2  7212
2 37755 049.0331 081.3397 7858158 240.2744 135.0705 00.10019192    09

# Worst residual: 13.86 km
# MJD 58973.000000 (2020 May  4  0:00)
2011-037A = Spektr-R = NORAD 37755
1 37755U 11037A   20125.49919926  .00000000  00000-0  00000-0 2  7213
2 37755 049.0346 081.3449 7858306 240.1372 171.8368 00.10031772    05

# Worst residual: 15.47 km
# MJD 58974.000000 (2020 May  5  0:00)
2011-037A = Spektr-R = NORAD 37755
1 37755U 11037A   20126.49919926  .00000000  00000-0  00000-0 2  7214
2 37755 049.0826 081.4636 7866612 239.9474 208.5642 00.10035797    09

# Worst residual: 15.06 km
# MJD 58975.000000 (2020 May  6  0:00)
2011-037A = Spektr-R = NORAD 37755
1 37755U 11037A   20127.49919926  .00000000  00000-0  00000-0 2  7215
2 37755 049.1261 081.6126 7877622 239.7795 245.1708 00.10030652    01

# Worst residual: 11.92 km
# MJD 58976.000000 (2020 May  7  0:00)
2011-037A = Spektr-R = NORAD 37755
1 37755U 11037A   20128.49919926  .00000000  00000-0  00000-0 2  7216
2 37755 049.1467 081.7294 7888743 239.6751 281.6029 00.10018501    03

# Worst residual: 7.20 km
# MJD 58977.000000 (2020 May  8  0:00)
2011-037A = Spektr-R = NORAD 37755
1 37755U 11037A   20129.49919926  .00000000  00000-0  00000-0 2  7217
2 37755 049.1483 081.7695 7896564 239.6304 317.8517 00.09996640    01

# Worst residual: 5.71 km
# MJD 58978.000000 (2020 May  9  0:00)
2011-037A = Spektr-R = NORAD 37755
1 37755U 11037A   20130.49919926  .00000000  00000-0  00000-0 2  7219
2 37755 049.1559 081.7511 7900597 239.5756 353.8776 00.09958366    04
